NORAD_CAT_ID,OBJECT_NAME,OBJECT_TYPE,EPOCH,MEAN_MOTION,ECCENTRICITY,INCLINATION,RA_OF_ASC_NODE,ARG_OF_PERICENTER,MEAN_ANOMALY,BSTAR,MEAN_MOTION_DOT,MEAN_MOTION_DDOT,TLE_LINE0,TLE_LINE1,TLE_LINE2,SEMIMAJOR_AXIS,PERIOD,APOGEE,PERIGEE,DECAYED
55676.0,STARLINK-5300,PAYLOAD,2024-01-23 02:59:41,14.98328387,0.0002309,70.0016,302.5422,240.9244,119.1684,2.8381e-05,2.46e-06,0.0,0 STARLINK-5300,1 55676U 23021BA  24023.12479104  .00000246  00000-0  28381-4 0  9994,2 55676  70.0016 302.5422 0002309 240.9244 119.1684 14.98328387 53159,6950.198,96.107,573.668,570.458,0.0
55676.0,STARLINK-5300,PAYLOAD,2024-01-23 04:35:49,14.9832928,0.0002307,70.0016,302.3739,241.1704,118.9224,3.8562e-05,3.67e-06,0.0,0 STARLINK-5300,1 55676U 23021BA  24023.19155065  .00000367  00000-0  38562-4 0  9994,2 55676  70.0016 302.3739 0002307 241.1704 118.9224 14.98329280 53464,6950.195,96.107,573.664,570.457,0.0
55676.0,STARLINK-5300,PAYLOAD,2024-01-23 22:13:17,14.98337729,0.0002415,70.0011,300.5221,244.8051,115.2858,6.8475e-05,7.24e-06,0.0,0 STARLINK-5300,1 55676U 23021BA  24023.92590255  .00000724  00000-0  68475-4 0  9992,2 55676  70.0011 300.5221 0002415 244.8051 115.2858 14.98337729 53572,6950.169,96.107,573.712,570.356,0.0
55676.0,STARLINK-5300,PAYLOAD,2024-01-24 03:01:42,14.98337795,0.0002411,70.0011,300.0173,244.9025,115.1884,6.6316e-05,6.99e-06,0.0,0 STARLINK-5300,1 55676U 23021BA  24024.12618174  .00000699  00000-0  66316-4 0  9999,2 55676  70.0011 300.0173 0002411 244.9025 115.1884 14.98337795 53303,6950.169,96.106,573.709,570.358,0.0
55676.0,STARLINK-5300,PAYLOAD,2024-01-24 04:37:50,14.98338529,0.0002408,70.0011,299.8489,245.4706,114.6202,7.6244e-05,8.17e-06,0.0,0 STARLINK-5300,1 55676U 23021BA  24024.19294132  .00000817  00000-0  76244-4 0  9993,2 55676  70.0011 299.8489 0002408 245.4706 114.6202 14.98338529 53614,6950.167,96.106,573.705,570.358,0.0
55676.0,STARLINK-5300,PAYLOAD,2024-01-24 20:39:11,14.98329129,0.0002314,70.0015,298.166,241.0663,119.0264,4.4039e-05,4.33e-06,0.0,0 STARLINK-5300,1 55676U 23021BA  24024.86054698  .00000433  00000-0  44039-4 0  9999,2 55676  70.0015 298.1660 0002314 241.0663 119.0264 14.98329129 53412,6950.196,96.107,573.669,570.452,0.0
55676.0,STARLINK-5300,PAYLOAD,2024-01-24 22:15:19,14.98328609,0.0002328,70.0015,297.9976,240.6828,119.4098,3.5813e-05,3.34e-06,0.0,0 STARLINK-5300,1 55676U 23021BA  24024.92730725  .00000334  00000-0  35813-4 0  9998,2 55676  70.0015 297.9976 0002328 240.6828 119.4098 14.98328609 53727,6950.197,96.107,573.68,570.444,0.0
55676.0,STARLINK-5300,PAYLOAD,2024-01-25 03:03:43,14.98326065,0.0002345,70.0013,297.4925,243.9885,116.1033,-6.5874e-07,-1.01e-06,0.0,0 STARLINK-5300,1 55676U 23021BA  24025.12759019 -.00000101  00000-0 -65874-6 0  9994,2 55676  70.0013 297.4925 0002345 243.9885 116.1033 14.98326065 53752,6950.205,96.107,573.7,570.44,0.0
55676.0,STARLINK-5300,PAYLOAD,2024-01-25 20:41:12,14.98328884,0.0002266,70.0016,295.6412,242.3679,117.725,-4.7425e-05,-6.59e-06,0.0,0 STARLINK-5300,1 55676U 23021BA  24025.86195057 -.00000659  00000-0 -47425-4 0  9999,2 55676  70.0016 295.6412 0002266 242.3679 117.7250 14.98328884 53560,6950.196,96.107,573.636,570.486,0.0
55676.0,STARLINK-5300,PAYLOAD,2024-01-25 22:17:20,14.98328382,0.0002274,70.0016,295.4728,242.3681,117.7247,-5.3538e-05,-7.32e-06,0.0,0 STARLINK-5300,1 55676U 23021BA  24025.92871094 -.00000732  00000-0 -53538-4 0  9992,2 55676  70.0016 295.4728 0002274 242.3681 117.7247 14.98328382 53873,6950.198,96.107,573.643,570.482,0.0
55676.0,STARLINK-5300,PAYLOAD,2024-01-26 03:05:44,14.98327181,0.0002279,70.0015,294.9677,242.9152,117.1774,-6.5188e-05,-8.7e-06,0.0,0 STARLINK-5300,1 55676U 23021BA  24026.12899225 -.00000870  00000-0 -65188-4 0  9998,2 55676  70.0015 294.9677 0002279 242.9152 117.1774 14.98327181 53902,6950.202,96.107,573.651,570.483,0.0
55676.0,STARLINK-5300,PAYLOAD,2024-01-27 01:31:37,14.98329471,0.0002368,70.0008,292.6094,248.1401,111.9506,9.4621e-05,1.036e-05,0.0,0 STARLINK-5300,1 55676U 23021BA  24027.06362792  .00001036  00000-0  94621-4 0  9993,2 55676  70.0008 292.6094 0002368 248.1401 111.9506 14.98329471 53747,6950.195,96.107,573.705,570.414,0.0
55676.0,STARLINK-5300,PAYLOAD,2024-01-27 19:09:05,14.98342521,0.0002857,69.9993,290.7559,272.4582,87.625,0.00018692,2.139e-05,0.0,0 STARLINK-5300,1 55676U 23021BA  24027.79797511  .00002139  00000-0  18692-3 0  9992,2 55676  69.9993 290.7559 0002857 272.4582  87.6250 14.98342521 53853,6950.154,96.106,574.005,570.034,0.0
55676.0,STARLINK-5300,PAYLOAD,2024-01-27 22:21:20,14.98344265,0.0002761,69.9994,290.42,269.4376,90.6467,0.00019702,2.259e-05,0.0,0 STARLINK-5300,1 55676U 23021BA  24027.93149235  .00002259  00000-0  19702-3 0  9998,2 55676  69.9994 290.4200 0002761 269.4376  90.6467 14.98344265 54172,6950.149,96.106,573.933,570.095,0.0
55676.0,STARLINK-5300,PAYLOAD,2024-01-28 03:09:44,14.98347075,0.0002688,69.9996,289.9154,266.8501,93.2351,0.00022265,2.566e-05,0.0,0 STARLINK-5300,1 55676U 23021BA  24028.13176819  .00002566  00000-0  22265-3 0  9998,2 55676  69.9996 289.9154 0002688 266.8501  93.2351 14.98347075 54201,6950.14,96.106,573.873,570.137,0.0
55676.0,STARLINK-5300,PAYLOAD,2024-01-28 19:11:07,14.98328133,0.0002723,69.9987,288.2314,267.3044,92.7804,-0.0001173,-1.492e-05,0.0,0 STARLINK-5300,1 55676U 23021BA  24028.79938893 -.00001492  00000-0 -11730-3 0  9992,2 55676  69.9987 288.2314 0002723 267.3044  92.7804 14.98328133 54008,6950.199,96.107,573.956,570.171,0.0
55676.0,STARLINK-5300,PAYLOAD,2024-01-28 22:23:23,14.98325335,0.0002778,69.9991,287.8944,264.1572,95.927,-0.00014406,-1.811e-05,0.0,0 STARLINK-5300,1 55676U 23021BA  24028.93291127 -.00001811  00000-0 -14406-3 0  9998,2 55676  69.9991 287.8944 0002778 264.1572  95.9270 14.98325335 54326,6950.207,96.107,574.003,570.142,0.0
55676.0,STARLINK-5300,PAYLOAD,2024-01-29 03:11:47,14.98325491,0.0002691,69.9993,287.39,261.926,98.1594,-0.00012492,-1.583e-05,0.0,0 STARLINK-5300,1 55676U 23021BA  24029.13319108 -.00001583  00000-0 -12492-3 0  9990,2 55676  69.9993 287.3900 0002691 261.9260  98.1594 14.98325491 54358,6950.207,96.107,573.942,570.202,0.0
55676.0,STARLINK-5300,PAYLOAD,2024-01-30 03:13:46,14.98347533,0.0002198,70.0012,284.8672,236.1056,123.9894,7.1536e-05,7.61e-06,0.0,0 STARLINK-5300,1 55676U 23021BA  24030.13456509  .00000761  00000-0  71536-4 0  9999,2 55676  70.0012 284.8672 0002198 236.1056 123.9894 14.98347533 54205,6950.139,96.106,573.531,570.476,0.0
55676.0,STARLINK-5300,PAYLOAD,2024-01-30 19:15:08,14.98319428,0.0002437,69.9992,283.1813,272.2602,87.8278,9.0843e-05,9.91e-06,0.0,0 STARLINK-5300,1 55676U 23021BA  24030.80218483  .00000991  00000-0  90843-4 0  9997,2 55676  69.9992 283.1813 0002437 272.2602  87.8278 14.98319428 54309,6950.226,96.108,573.784,570.397,0.0
55676.0,STARLINK-5300,PAYLOAD,2024-01-30 20:51:16,14.98318833,0.0002762,69.9985,283.0127,275.4401,84.6443,6.0552e-05,6.29e-06,0.0,0 STARLINK-5300,1 55676U 23021BA  24030.86894577  .00000629  00000-0  60552-4 0  9999,2 55676  69.9985 283.0127 0002762 275.4401  84.6443 14.98318833 54613,6950.227,96.108,574.012,570.173,0.0
55676.0,STARLINK-5300,PAYLOAD,2024-01-31 01:39:41,14.98317951,0.0002591,69.9989,282.5079,272.8777,87.2085,5.8121e-05,6e-06,0.0,0 STARLINK-5300,1 55676U 23021BA  24031.06922798  .00000600  00000-0  58121-4 0  9997,2 55676  69.9989 282.5079 0002591 272.8777  87.2085 14.98317951 54648,6950.23,96.108,573.896,570.294,0.0
55676.0,STARLINK-5300,PAYLOAD,2024-02-01 01:41:41,14.98341053,0.0002695,69.9984,279.9827,279.9151,80.1703,-0.00025038,-3.08e-05,0.0,0 STARLINK-5300,1 55676U 23021BA  24032.07062361 -.00003080  00000-0 -25038-3 0  9997,2 55676  69.9984 279.9827 0002695 279.9151  80.1703 14.98341053 54495,6950.159,96.106,573.897,570.151,0.0
55676.0,STARLINK-5300,PAYLOAD,2024-02-01 16:06:54,14.9832137,0.0002534,69.9985,278.4682,274.1418,85.9451,8.1627e-05,8.81e-06,0.0,0 STARLINK-5300,1 55676U 23021BA  24032.67146712  .00000881  00000-0  81627-4 0  9997,2 55676  69.9985 278.4682 0002534 274.1418  85.9451 14.98321370 54587,6950.22,96.108,573.846,570.323,0.0
55676.0,STARLINK-5300,PAYLOAD,2024-02-02 01:43:43,14.98324512,0.0002279,69.999,277.4589,269.0747,91.015,0.00012189,1.361e-05,0.0,0 STARLINK-5300,1 55676U 23021BA  24033.07202595  .00001361  00000-0  12189-3 0  9994,2 55676  69.9990 277.4589 0002279 269.0747  91.0150 14.98324512 54947,6950.21,96.107,573.659,570.491,0.0
55676.0,STARLINK-5300,PAYLOAD,2024-02-02 19:21:11,14.98327772,0.0002148,69.9992,275.6073,261.0862,99.0054,4.627e-05,4.59e-06,0.0,0 STARLINK-5300,1 55676U 23021BA  24033.80638808  .00000459  00000-0  46270-4 0  9991,2 55676  69.9992 275.6073 0002148 261.0862  99.0054 14.98327772 54753,6950.2,96.107,573.558,570.572,0.0
55676.0,STARLINK-5300,PAYLOAD,2024-02-02 22:33:28,14.98327424,0.000216,69.9992,275.2705,259.0171,101.0746,4.1867e-05,4.07e-06,0.0,0 STARLINK-5300,1 55676U 23021BA  24033.93990841  .00000407  00000-0  41867-4 0  9993,2 55676  69.9992 275.2705 0002160 259.0171 101.0746 14.98327424 55077,6950.201,96.107,573.567,570.565,0.0
55676.0,STARLINK-5300,PAYLOAD,2024-02-03 01:45:44,14.98328148,0.0002253,69.9989,274.934,269.4115,90.6786,5.2293e-05,5.31e-06,0.0,0 STARLINK-5300,1 55676U 23021BA  24034.07342825  .00000531  00000-0  52293-4 0  9995,2 55676  69.9989 274.9340 0002253 269.4115  90.6786 14.98328148 55093,6950.199,96.107,573.629,570.498,0.0
55676.0,STARLINK-5300,PAYLOAD,2024-02-03 19:23:12,14.98332066,0.0002311,69.9987,273.082,268.2717,91.8177,6.256e-05,6.54e-06,0.0,0 STARLINK-5300,1 55676U 23021BA  24034.80778572  .00000654  00000-0  62560-4 0  9992,2 55676  69.9987 273.0820 0002311 268.2717  91.8177 14.98332066 54904,6950.187,96.107,573.658,570.445,0.0
55676.0,STARLINK-5300,PAYLOAD,2024-02-03 22:35:28,14.98332481,0.0002301,69.9988,272.7455,268.3841,91.7055,6.5227e-05,6.85e-06,0.0,0 STARLINK-5300,1 55676U 23021BA  24034.94130508  .00000685  00000-0  65227-4 0  9995,2 55676  69.9988 272.7455 0002301 268.3841  91.7055 14.98332481 55224,6950.185,96.107,573.649,570.451,0.0
